1 12474U 81050A   14133.31369955 -.00000243  00000-0  00000+0 0  9994
2 12474 015.1641 004.2102 0007272 118.1049 187.2646 00.98856275 94073
1 12474U 81050A   14135.34223171 -.00000225  00000-0  00000+0 0  9998
2 12474 015.1648 004.1892 0007362 118.5640 188.7500 00.98855678 94099
1 12474U 81050A   14138.19749510 -.00000182  00000-0  00000+0 0  9996
2 12474 015.1658 004.1595 0007437 118.7574 124.7243 00.98854721 94127
1 12474U 81050A   14144.07094962 -.00000063  00000-0  00000+0 0  9992
2 12474 015.1678 004.0986 0007767 119.3890 054.3790 00.98852990 94183
1 12474U 81050A   14147.43081125 -.00000006  00000-0  00000+0 0  9999
2 12474 015.1689 004.0636 0007989 120.1221 169.3635 00.98852653 94216
1 12474U 81050A   14150.63819530  .00000017  00000-0  00000+0 0  9995
2 12474 015.1699 004.0303 0008180 121.1315 229.8068 00.98852958 94240
1 12474U 81050A   14154.28094051 -.00000008  00000-0  00000+0 0  9994
2 12474 015.1712 003.9925 0008371 122.5926 084.7482 00.98854080 94289
1 12474U 81050A   14155.72165340  .00000000  00000-0  10000-3 0  9990
2 12474 015.1724 003.9792 0008301 122.1354 237.9348 00.98850734 94294
1 12474U 81050A   14156.71376226 -.00000055  00000-0  00000+0 0  9993
2 12474 015.1720 003.9672 0008492 123.6412 229.5123 00.98855016 94307
1 12474U 81050A   14159.33008104 -.00000123  00000-0  00000+0 0  9997
2 12474 015.1728 003.9400 0008585 124.6269 079.6595 00.98856160 94339
1 12474U 81050A   14162.66090721 -.00000215  00000-0  00000+0 0  9995
2 12474 015.1738 003.9052 0008655 125.5822 184.1355 00.98857188 94366
1 12474U 81050A   14162.80241800  .00000000  00000-0  10000-3 0  9993
2 12474 015.1745 003.9054 0008598 124.6731 235.4075 00.98853047 94360
1 12474U 81050A   14166.66931177 -.00000290  00000-0  00000+0 0  9991
2 12474 015.1750 003.8634 0008787 126.4437 169.8650 00.98857401 94404
1 12474U 81050A   14167.86001906  .00000000  00000-0  10000-3 0  9995
2 12474 015.1762 003.8521 0008870 126.6690 233.4130 00.98852965 94421
1 12474U 81050A   14168.74283770 -.00000297  00000-0  00000+0 0  9998
2 12474 015.1757 003.8417 0008859 126.7478 187.5293 00.98857015 94421
1 12474U 81050A   14170.91384699 -.00000277  00000-0  00000+0 0  9990
2 12474 015.1763 003.8191 0008957 127.0978 239.8352 00.98856210 94451
1 12474U 81050A   14173.87004014 -.00000212  00000-0  00000+0 0  9997
2 12474 015.1772 003.7882 0009112 127.8469 211.1772 00.98854824 94474
1 12474U 81050A   14176.96389069  .00000000  00000-0  10000-3 0  9995
2 12474 015.1790 003.7587 0009141 128.8263 231.2589 00.98849357 94510
1 12474U 81050A   14177.41634494 -.00000102  00000-0  00000+0 0  9990
2 12474 015.1783 003.7512 0009297 129.1463 031.9656 00.98853177 94513
1 12474U 81050A   14179.57980270 -.00000038  00000-0  00000+0 0  9993
2 12474 015.1790 003.7286 0009411 130.0669 080.9792 00.98852370 94537
1 12474U 81050A   14182.06823443  .00000016  00000-0  00000+0 0  9994
2 12474 015.1797 003.7026 0009516 131.1993 245.4321 00.98852038 94564
1 12474U 81050A   14185.02982267  .00000038  00000-0  00000+0 0  9997
2 12474 015.1806 003.6717 0009604 132.4867 218.1174 00.98852376 94583
1 12474U 81050A   14188.86245086 -.00000004  00000-0  00000+0 0  9997
2 12474 015.1818 003.6315 0009661 133.8403 140.7363 00.98853781 94620
1 12474U 81050A   14191.12604946 -.00000058  00000-0  00000+0 0  9993
2 12474 015.1824 003.6078 0009696 134.6899 225.4758 00.98854811 94656
1 12474U 81050A   14193.83428944 -.00000134  00000-0  00000+0 0  9990
2 12474 015.1832 003.5794 0009739 135.2518 108.7602 00.98856002 94679
1 12474U 81050A   14196.03015766 -.00000192  00000-0  00000+0 0  9993
2 12474 015.1838 003.5563 0009786 135.6986 169.8126 00.98856612 94692
1 12474U 81050A   14199.29100869 -.00000252  00000-0  00000+0 0  9990
2 12474 015.1848 003.5221 0009899 136.4730 249.5702 00.98856997 94732
1 12474U 81050A   14201.33442245 -.00000267  00000-0  00000+0 0  9992
2 12474 015.1853 003.5007 0009984 137.0757 256.2140 00.98856804 94751
1 12474U 81050A   14203.36109131 -.00000263  00000-0  00000+0 0  9997
2 12474 015.1860 003.4795 0010063 137.7360 256.8406 00.98856411 94776
1 12474U 81050A   14206.29142134 -.00000229  00000-0  00000+0 0  9994
2 12474 015.1868 003.4488 0010170 138.9607 218.5024 00.98855434 94796
1 12474U 81050A   14209.35989698 -.00000166  00000-0  00000+0 0  9998
2 12474 015.1878 003.4167 0010256 140.3538 229.1513 00.98854319 94833
1 12474U 81050A   14211.41297213 -.00000117  00000-0  00000+0 0  9999
2 12474 015.1884 003.3953 0010284 141.2225 238.9472 00.98853661 94859
1 12474U 81050A   14214.26062981 -.00000052  00000-0  00000+0 0  9995
2 12474 015.1892 003.3654 0010305 142.5411 171.0666 00.98852938 94871
1 12474U 81050A   14217.51026166  .00000002  00000-0  00000+0 0  9995
2 12474 015.1902 003.3313 0010294 143.8042 246.2938 00.98852656 94915
1 12474U 81050A   14220.41031470  .00000019  00000-0  00000+0 0  9990
2 12474 015.1910 003.3007 0010283 144.7184 197.4573 00.98852829 94935
1 12474U 81050A   14222.51879291  .00000009  00000-0  00000+0 0  9993
2 12474 015.1916 003.2785 0010287 145.2153 227.3383 00.98853364 94969
1 12474U 81050A   14224.64813946 -.00000020  00000-0  00000+0 0  9998
2 12474 015.1921 003.2560 0010310 145.7699 264.5905 00.98854055 94986
1 12474U 81050A   14227.50581912 -.00000082  00000-0  00000+0 0  9999
2 12474 015.1930 003.2260 0010365 146.5413 200.8386 00.98855165 95009
1 12474U 81050A   14230.55832641 -.00000163  00000-0  00000+0 0  9996
2 12474 015.1938 003.1939 0010441 147.4188 206.3304 00.98856326 95037
1 12474U 81050A   14232.58154194 -.00000214  00000-0  00000+0 0  9998
2 12474 015.1944 003.1726 0010491 148.0905 205.7157 00.98856925 95053
1 12474U 81050A   14232.59927449  .00000000  00000-0  10000-3 0  9997
2 12474 015.1939 003.1739 0010608 137.1892 222.9360 00.98852878 95066
1 12474U 81050A   14234.61140965 -.00000255  00000-0  00000+0 0  9990
2 12474 015.1950 003.1514 0010532 148.8522 207.3824 00.98857287 95077
1 12474U 81050A   14237.64624610 -.00000286  00000-0  00000+0 0  9994
2 12474 015.1958 003.1195 0010556 150.1432 206.1864 00.98857178 95106
1 12474U 81050A   14238.66838102  .00000000  00000-0  10000-3 0  9998
2 12474 015.1962 003.1083 0010660 151.1040 209.0035 00.98853149 95127
1 12474U 81050A   14240.68955568 -.00000270  00000-0  00000+0 0  9994
2 12474 015.1967 003.0876 0010546 151.5490 207.8867 00.98856357 95142
1 12474U 81050A   14242.73641907 -.00000235  00000-0  00000+0 0  9992
2 12474 015.1973 003.0662 0010525 152.5471 215.3565 00.98855501 95160
1 12474U 81050A   14245.93142050 -.00000153  00000-0  00000+0 0  9991
2 12474 015.1982 003.0325 0010470 153.8533 271.1206 00.98853963 95193
1 12474U 81050A   14247.95964547 -.00000096  00000-0  00000+0 0  9994
2 12474 015.1987 003.0111 0010425 154.5357 272.2530 00.98853018 95219
1 12474U 81050A   14250.82012956 -.00000027  00000-0  00000+0 0  9996
2 12474 015.1995 002.9810 0010390 155.4967 209.2906 00.98852184 95243
1 12474U 81050A   14254.68632125  .00000018  00000-0  00000+0 0  9999
2 12474 015.2005 002.9404 0010365 156.8185 143.8751 00.98852155 95276
1 12474U 81050A   14258.90675689 -.00000011  00000-0  00000+0 0  9994
2 12474 015.2017 002.8961 0010427 157.8582 204.8166 00.98853408 95323
1 12474U 81050A   14263.09733431 -.00000098  00000-0  00000+0 0  9995
2 12474 015.2028 002.8524 0010457 159.6887 254.3628 00.98855168 95363
1 12474U 81050A   14266.13698373 -.00000169  00000-0  00000+0 0  9997
2 12474 015.2037 002.8208 0010436 161.1216 254.7229 00.98856242 95391
1 12474U 81050A   14266.13698373 -.00000169  00000-0  00000+0 0  9997
2 12474 015.2037 002.8208 0010436 161.1216 254.7229 00.98856242 95391
1 12474U 81050A   14266.13698373 -.00000169  00000-0  00000+0 0  9997
2 12474 015.2037 002.8208 0010436 161.1216 254.7229 00.98856242 95391
1 12474U 81050A   14269.01483638  .00000000  00000-0  10000-3 0  9991
2 12474 015.2039 002.7911 0010267 162.4804 197.5821 00.98852782 95423
1 12474U 81050A   14269.06308483 -.00000222  00000-0  00000+0 0  9992
2 12474 015.2045 002.7903 0010371 162.6433 214.5901 00.98856718 95429
1 12474U 81050A   14271.10756117 -.00000243  00000-0  00000+0 0  9994
2 12474 015.2050 002.7689 0010303 163.6196 221.2370 00.98856687 95440
1 12474U 81050A   14275.30605020 -.00000241  00000-0  00000+0 0  9994
2 12474 015.2061 002.7250 0010177 164.5505 274.5346 00.98855874 95484
1 12474U 81050A   14278.07268906 -.00000208  00000-0  00000+0 0  9992
2 12474 015.2067 002.6961 0010093 165.2643 178.4474 00.98854899 95509
1 12474U 81050A   14280.40543068 -.00000165  00000-0  00000+0 0  9999
2 12474 015.2073 002.6718 0010039 165.8535 288.0560 00.98854029 95534
1 12474U 81050A   14285.41901382 -.00000053  00000-0  00000+0 0  9998
2 12474 015.2085 002.6193 0009983 167.2305 270.9398 00.98852628 95588
1 12474U 81050A   14287.42750704 -.00000014  00000-0  00000+0 0  9998
2 12474 015.2091 002.5984 0009944 168.1352 264.8205 00.98852351 95606
1 12474U 81050A   14289.49924024  .00000014  00000-0  00000+0 0  9994
2 12474 015.2096 002.5769 0009920 168.9679 281.2810 00.98852399 95625
1 12474U 81050A   14292.12091178  .00000026  00000-0  00000+0 0  9996
2 12474 015.2102 002.5497 0009892 170.0136 133.2427 00.98852819 95640
1 12474U 81050A   14294.53789780  .00000010  00000-0  00000+0 0  9999
2 12474 015.2107 002.5247 0009833 171.0735 272.3474 00.98853483 95677
1 12474U 81050A   14297.34985794 -.00000041  00000-0  00000+0 0  9999
2 12474 015.2115 002.4955 0009748 172.1691 191.9954 00.98854630 95707
1 12474U 81050A   14300.68864804 -.00000132  00000-0  00000+0 0  9990
2 12474 015.2122 002.4608 0009577 173.4938 298.9201 00.98856007 95734
1 12474U 81050A   14303.46702757 -.00000213  00000-0  00000+0 0  9997
2 12474 015.2129 002.4318 0009431 174.3014 206.9282 00.98856851 95750
1 12474U 81050A   14307.51442828 -.00000290  00000-0  00000+0 0  9992
2 12474 015.2138 002.3897 0009249 175.1865 206.5087 00.98857100 95792
1 12474U 81050A   14309.51573281 -.00000296  00000-0  00000+0 0  9998
2 12474 015.2143 002.3689 0009175 175.6564 198.3014 00.98856747 95813
